IDEFIX & ARIANE 42P R/B 
1 27422U 02021B   26027.59227295  .00000558  00000+0  22860-3 0  9998
2 27422  98.5831 326.7006 0011058 312.9658  47.0597 14.30993816238140
AQUA                    
1 27424U 02022A   26027.63960626  .00001831  00000+0  37607-3 0  9998
2 27424  98.4102 354.2809 0001844  63.7090 108.5242 14.61867354262735
CZ-4B R/B               
1 27432U 02024C   26027.12647644  .00000096  00000+0  71972-4 0  9991
2 27432  98.8929  80.7246 0050848 140.2881 275.0283 14.14539470223362
MIDORI II (ADEOS-II)    
1 27597U 02056A   26027.50042450  .00000618  00000+0  26076-3 0  9998
2 27597  98.7700 345.7132 0002017 100.8979 259.2430 14.29250710204419
H-2A R/B                
1 27601U 02056E   26027.54325319  .00000637  00000+0  23820-3 0  9991
2 27601  98.3129 349.4944 0069074 284.6065 191.4465 14.33727723208216
CZ-4B R/B               
1 28059U 03049C   26027.53497031  .00000873  00000+0  21158-3 0  9996
2 28059  98.6833  20.8410 0048226 358.7446   1.3621 14.54969738180612
CZ-2C R/B               
1 28222U 04012C   26027.61179219  .00058430  00000+0  72040-3 0  9991
2 28222  97.7339  89.1460 0016899 101.7870 258.5282 15.59840616197869
SL-16 R/B               
1 28353U 04021B   26027.23149752 -.00000194  00000+0 -76400-4 0  9994
2 28353  71.0024 319.4977 0002634 114.4446 245.6951 14.14591286116973
CZ-4B R/B               
1 28415U 04035C   26027.53955809  .00010737  00000+0  38560-3 0  9995
2 28415  97.3567  62.2878 0034283 113.6152 246.8694 15.28272790173622
CZ-2C R/B               
1 28480U 04046B   26027.39586017  .00000351  00000+0  14638-3 0  9995
2 28480  98.1999 304.9427 0138224 277.1269  81.4214 14.26975192102618
ARIANE 5 R/B            
1 28499U 04049H   26027.46926513  .00001984  00000+0  22394-3 0  9996
2 28499  98.2561 194.4033 0085291 124.2360 236.6972 14.85168883139675
CZ-2D R/B               
1 28738U 05024B   26027.48307968  .00045385  00000+0  63825-3 0  9992
2 28738  97.3629  41.2338 0006124 148.1068 212.0559 15.56532901133365
